NORAD_CAT_ID,OBJECT_NAME,OBJECT_TYPE,EPOCH,MEAN_MOTION,ECCENTRICITY,INCLINATION,RA_OF_ASC_NODE,ARG_OF_PERICENTER,MEAN_ANOMALY,BSTAR,MEAN_MOTION_DOT,MEAN_MOTION_DDOT,TLE_LINE0,TLE_LINE1,TLE_LINE2,SEMIMAJOR_AXIS,PERIOD,APOGEE,PERIGEE,DECAYED
52583.0,STARLINK-3895,PAYLOAD,2024-05-14 22:40:56,15.08919963,0.0001269,53.2158,218.7889,109.9305,250.1824,0.00092235,0.00014454,0.0,0 STARLINK-3895,1 52583U 22051AZ  24135.94509298  .00014454  00000-0  92235-3 0  9996,2 52583  53.2158 218.7889 0001269 109.9305 250.1824 15.08919963111384,6917.636,95.432,540.379,538.623,0.0
52583.0,STARLINK-3895,PAYLOAD,2024-05-15 05:02:27,15.08929683,7.56e-05,53.2164,217.5964,105.2831,254.8244,0.0011031,0.00017355,0.0,0 STARLINK-3895,1 52583U 22051AZ  24136.21003763  .00017355  00000-0  11031-2 0  9990,2 52583  53.2164 217.5964 0000756 105.2831 254.8244 15.08929683111494,6917.606,95.432,539.994,538.948,0.0
52583.0,STARLINK-3895,PAYLOAD,2024-05-15 11:23:57,15.08975801,0.0001091,53.2139,216.4078,100.0937,260.0178,0.0023254,0.00037054,0.0,0 STARLINK-3895,1 52583U 22051AZ  24136.47497109  .00037054  00000-0  23254-2 0  9997,2 52583  53.2139 216.4078 0001091 100.0937 260.0178 15.08975801111536,6917.465,95.429,540.085,538.576,0.0
52583.0,STARLINK-3895,PAYLOAD,2024-05-15 22:31:35,15.09023973,0.0001683,53.2143,214.3283,40.9838,319.128,0.002439,0.0003894,0.0,0 STARLINK-3895,1 52583U 22051AZ  24136.93860104  .00038940  00000-0  24390-2 0  9994,2 52583  53.2143 214.3283 0001683  40.9838 319.1280 15.09023973111530,6917.318,95.426,540.347,538.019,0.0
52583.0,STARLINK-3895,PAYLOAD,2024-05-16 11:14:38,15.08873873,0.0001513,53.2149,211.9476,87.5174,272.5991,-0.003495,-0.00055534,0.0,0 STARLINK-3895,1 52583U 22051AZ  24137.46849943 -.00055534  00000-0 -34950-2 0  9994,2 52583  53.2149 211.9476 0001513  87.5174 272.5991 15.08873873111683,6917.777,95.435,540.689,538.595,0.0
52583.0,STARLINK-3895,PAYLOAD,2024-05-16 22:22:21,15.08823158,0.0001487,53.2134,209.8656,89.2113,270.905,0.0025791,0.00040978,0.0,0 STARLINK-3895,1 52583U 22051AZ  24137.93219545  .00040978  00000-0  25791-2 0  9992,2 52583  53.2134 209.8656 0001487  89.2113 270.9050 15.08823158111752,6917.932,95.439,540.826,538.768,0.0
52583.0,STARLINK-3895,PAYLOAD,2024-05-17 11:05:28,15.08806291,0.0001452,53.2156,207.4876,92.8918,267.224,0.0019109,0.00030227,0.0,0 STARLINK-3895,1 52583U 22051AZ  24138.46213182  .00030227  00000-0  19109-2 0  9994,2 52583  53.2156 207.4876 0001452  92.8918 267.2240 15.08806291111837,6917.983,95.44,540.853,538.844,0.0
52583.0,STARLINK-3895,PAYLOAD,2024-05-18 14:07:01,15.08871501,0.00015,53.217,202.4325,88.0679,272.0485,0.0016965,0.00026838,0.0,0 STARLINK-3895,1 52583U 22051AZ  24139.58821188  .00026838  00000-0  16965-2 0  9999,2 52583  53.2170 202.4325 0001500  88.0679 272.0485 15.08871501111934,6917.784,95.436,540.687,538.611,0.0
52583.0,STARLINK-3895,PAYLOAD,2024-05-19 04:25:30,15.08851826,0.0001919,53.217,199.7558,81.6627,278.4582,0.00091059,0.00014238,0.0,0 STARLINK-3895,1 52583U 22051AZ  24140.18437506  .00014238  00000-0  91059-3 0  9993,2 52583  53.2170 199.7558 0001919  81.6627 278.4582 15.08851826112090,6917.844,95.437,541.037,538.382,0.0
52583.0,STARLINK-3895,PAYLOAD,2024-05-19 09:11:40,15.08812805,0.0002013,53.2167,198.864,34.8118,325.3006,0.00042909,6.542e-05,0.0,0 STARLINK-3895,1 52583U 22051AZ  24140.38310244  .00006542  00000-0  42909-3 0  9993,2 52583  53.2167 198.8640 0002013  34.8118 325.3006 15.08812805112052,6917.964,95.439,541.221,538.436,0.0
52583.0,STARLINK-3895,PAYLOAD,2024-05-20 04:16:18,15.08843849,0.0001621,53.2161,195.2947,57.9535,302.1614,0.0014063,0.00022167,0.0,0 STARLINK-3895,1 52583U 22051AZ  24141.17798798  .00022167  00000-0  14063-2 0  9995,2 52583  53.2161 195.2947 0001621  57.9535 302.1614 15.08843849112241,6917.869,95.437,540.855,538.612,0.0
52583.0,STARLINK-3895,PAYLOAD,2024-05-20 09:02:27,15.08853914,0.0001547,53.2163,194.4049,67.3335,292.7821,0.0014645,0.00023105,0.0,0 STARLINK-3895,1 52583U 22051AZ  24141.37670644  .00023105  00000-0  14645-2 0  9995,2 52583  53.2163 194.4049 0001547  67.3335 292.7821 15.08853914112201,6917.838,95.437,540.773,538.633,0.0
52583.0,STARLINK-3895,PAYLOAD,2024-05-21 08:53:13,15.08859465,0.0001106,53.2147,189.9361,85.8979,274.214,0.00067039,0.00010403,0.0,0 STARLINK-3895,1 52583U 22051AZ  24142.37029928  .00010403  00000-0  67039-3 0  9992,2 52583  53.2147 189.9361 0001106  85.8979 274.2140 15.08859465112429,6917.821,95.436,540.451,538.921,0.0
52583.0,STARLINK-3895,PAYLOAD,2024-05-22 08:44:01,15.08842375,0.0001607,53.2156,185.4863,65.1987,294.9172,0.00049974,7.675e-05,0.0,0 STARLINK-3895,1 52583U 22051AZ  24143.36390657  .00007675  00000-0  49974-3 0  9997,2 52583  53.2156 185.4863 0001607  65.1987 294.9172 15.08842375112575,6917.873,95.437,540.85,538.626,0.0
52583.0,STARLINK-3895,PAYLOAD,2024-05-23 10:10:11,15.08842687,0.0001501,53.2152,180.7256,76.5099,283.606,0.00020038,2.903e-05,0.0,0 STARLINK-3895,1 52583U 22051AZ  24144.42374544  .00002903  00000-0  20038-3 0  9991,2 52583  53.2152 180.7256 0001501  76.5099 283.6060 15.08842687112733,6917.872,95.437,540.776,538.699,0.0
52583.0,STARLINK-3895,PAYLOAD,2024-05-24 08:25:35,15.08848437,0.0001478,53.2151,176.562,78.708,281.4078,0.00020661,3.002e-05,0.0,0 STARLINK-3895,1 52583U 22051AZ  24145.35110150  .00003002  00000-0  20661-3 0  9998,2 52583  53.2151 176.5620 0001478  78.7080 281.4078 15.08848437112809,6917.855,95.437,540.742,538.697,0.0
52583.0,STARLINK-3895,PAYLOAD,2024-05-24 19:33:15,15.08883316,0.0001107,53.2154,174.4809,74.5091,285.6023,0.00089713,0.00014036,0.0,0 STARLINK-3895,1 52583U 22051AZ  24145.81476706  .00014036  00000-0  89713-3 0  9993,2 52583  53.2154 174.4809 0001107  74.5091 285.6023 15.08883316112949,6917.748,95.435,540.379,538.847,0.0
52583.0,STARLINK-3895,PAYLOAD,2024-05-25 08:16:22,15.0883568,0.0001535,53.2159,172.1027,75.4404,284.6758,-9.5639e-06,-4.4e-06,0.0,0 STARLINK-3895,1 52583U 22051AZ  24146.34470827 -.00000440  00000-0 -95639-5 0  9992,2 52583  53.2159 172.1027 0001535  75.4404 284.6758 15.08835680113029,6917.894,95.438,540.82,538.697,0.0
52583.0,STARLINK-3895,PAYLOAD,2024-05-26 11:17:55,15.08846694,0.0001974,53.2171,167.0441,113.8825,246.2374,-3.9954e-05,-9.24e-06,0.0,0 STARLINK-3895,1 52583U 22051AZ  24147.47078143 -.00000924  00000-0 -39954-4 0  9996,2 52583  53.2171 167.0441 0001974 113.8825 246.2374 15.08846694113190,6917.86,95.437,541.091,538.359,0.0
52583.0,STARLINK-3895,PAYLOAD,2024-05-27 04:47:10,15.08835196,0.0001637,53.2167,163.7736,110.3734,249.7434,0.00011016,1.465e-05,0.0,0 STARLINK-3895,1 52583U 22051AZ  24148.19942673  .00001465  00000-0  11016-3 0  9991,2 52583  53.2167 163.7736 0001637 110.3734 249.7434 15.08835196113305,6917.895,95.438,540.893,538.628,0.0
52583.0,STARLINK-3895,PAYLOAD,2024-05-27 07:57:56,15.08835201,0.000153,53.2165,163.1791,103.6164,256.4998,7.0935e-05,8.41e-06,0.0,0 STARLINK-3895,1 52583U 22051AZ  24148.33190772  .00000841  00000-0  70935-4 0  9995,2 52583  53.2165 163.1791 0001530 103.6164 256.4998 15.08835201113253,6917.895,95.438,540.818,538.702,0.0
52583.0,STARLINK-3895,PAYLOAD,2024-05-27 17:30:15,15.08836055,0.0001521,53.2165,161.3949,103.2939,256.8223,6.5714e-05,7.58e-06,0.0,0 STARLINK-3895,1 52583U 22051AZ  24148.72934802  .00000758  00000-0  65714-4 0  9994,2 52583  53.2165 161.3949 0001521 103.2939 256.8223 15.08836055113314,6917.892,95.438,540.81,538.705,0.0
52583.0,STARLINK-3895,PAYLOAD,2024-05-28 04:37:56,15.08848719,0.0001435,53.2163,159.3133,101.82,258.2953,0.00011228,1.5e-05,0.0,0 STARLINK-3895,1 52583U 22051AZ  24149.19301678  .00001500  00000-0  11228-3 0  9991,2 52583  53.2163 159.3133 0001435 101.8200 258.2953 15.08848719113454,6917.854,95.437,540.711,538.726,0.0
52583.0,STARLINK-3895,PAYLOAD,2024-05-28 07:48:42,15.08850117,0.000143,53.2161,158.7185,100.8243,259.291,0.0001227,1.666e-05,0.0,0 STARLINK-3895,1 52583U 22051AZ  24149.32549507  .00001666  00000-0  12270-3 0  9992,2 52583  53.2161 158.7185 0001430 100.8243 259.2910 15.08850117113407,6917.849,95.437,540.704,538.725,0.0
52583.0,STARLINK-3895,PAYLOAD,2024-05-29 04:28:44,15.0883588,0.0001328,53.2153,154.8545,78.4586,281.6555,6.8928e-05,8.09e-06,0.0,0 STARLINK-3895,1 52583U 22051AZ  24150.18662400  .00000809  00000-0  68928-4 0  9996,2 52583  53.2153 154.8545 0001328  78.4586 281.6555 15.08835880113607,6917.893,95.438,540.677,538.839,0.0
52583.0,STARLINK-3895,PAYLOAD,2024-05-29 07:39:30,15.08833438,0.0001295,53.2153,154.2556,78.2232,281.8905,-2.9839e-06,-3.35e-06,0.0,0 STARLINK-3895,1 52583U 22051AZ  24150.31910697 -.00000335  00000-0 -29839-5 0  9990,2 52583  53.2153 154.2556 0001295  78.2232 281.8905 15.08833438113554,6917.9,95.438,540.661,538.87,0.0
52583.0,STARLINK-3895,PAYLOAD,2024-05-30 09:05:40,15.08839625,0.0001319,53.2156,149.5031,85.5637,274.5506,-3.0612e-05,-7.75e-06,0.0,0 STARLINK-3895,1 52583U 22051AZ  24151.37894583 -.00000775  00000-0 -30612-4 0  9990,2 52583  53.2156 149.5031 0001319  85.5637 274.5506 15.08839625113784,6917.882,95.438,540.659,538.834,0.0
52583.0,STARLINK-3895,PAYLOAD,2024-05-30 23:24:08,15.08835642,0.0001301,53.2161,146.8248,90.7615,269.3526,0.00011893,1.605e-05,0.0,0 STARLINK-3895,1 52583U 22051AZ  24151.97510381  .00001605  00000-0  11893-3 0  9997,2 52583  53.2161 146.8248 0001301  90.7615 269.3526 15.08835642113807,6917.894,95.438,540.659,538.859,0.0
52583.0,STARLINK-3895,PAYLOAD,2024-05-31 07:21:04,15.0883947,0.0001388,53.2165,145.3384,88.9819,271.1332,0.00014577,2.033e-05,0.0,0 STARLINK-3895,1 52583U 22051AZ  24152.30630254  .00002033  00000-0  14577-3 0  9995,2 52583  53.2165 145.3384 0001388  88.9819 271.1332 15.08839470113850,6917.882,95.438,540.707,538.787,0.0
52583.0,STARLINK-3895,PAYLOAD,2024-05-31 16:53:23,15.08842369,0.0001321,53.2162,143.5529,91.1614,268.9529,0.00014563,2.031e-05,0.0,0 STARLINK-3895,1 52583U 22051AZ  24152.70374095  .00002031  00000-0  14563-3 0  9990,2 52583  53.2162 143.5529 0001321  91.1614 268.9529 15.08842369113981,6917.873,95.437,540.652,538.824,0.0
